OBJECT_NAME,OBJECT_ID,EPOCH,MEAN_MOTION,ECCENTRICITY,INCLINATION,RA_OF_ASC_NODE,ARG_OF_PERICENTER,MEAN_ANOMALY,EPHEMERIS_TYPE,CLASSIFICATION_TYPE,NORAD_CAT_ID,ELEMENT_SET_NO,REV_AT_EPOCH,BSTAR,MEAN_MOTION_DOT,MEAN_MOTION_DDOT
EYESAT A (AO-27),1993-061C,2026-05-12T21:33:02.773728,14.30932230,.00080503,98.6892,200.3212,196.3419,163.7505,0,U,22825,999,70195,.33463133E-4,.43E-6,0
ITAMSAT (IO-26),1993-061D,2026-05-12T11:14:33.820800,14.31358097,.0008878,98.6840,199.8056,181.2449,178.8713,0,U,22826,999,70220,.32501E-4,.41E-6,0
RADIO ROSTO (RS15),1994-085A,2026-05-12T21:45:14.347584,11.27583706,.01549588,64.8193,0.2768,10.3348,350.0702,0,U,23439,999,29192,-.10743403E-3,-.46E-6,0
JAS-2 (FO-29),1996-046B,2026-05-12T19:43:17.051232,13.53272310,.03497074,98.5279,346.5311,188.0537,171.4897,0,U,24278,999,46838,.10648791E-4,-.25E-6,0
FORTE,1997-047A,2026-05-12T22:19:05.149344,14.27929871,.00236523,69.9521,93.6558,320.4960,39.4437,0,U,24920,999,49365,.60034559E-4,.91E-6,0
TECHSAT 1B (GO-32),1998-043D,2026-05-12T20:56:29.158944,14.24421265,.00010109,99.0064,124.7427,13.1949,346.9255,0,U,25397,999,44630,.32726114E-4,.29E-6,0
ISS (ZARYA),1998-067A,2026-05-12T20:15:17.010432,15.49198654,.00075103,51.6312,115.0561,52.2723,307.8945,0,U,25544,999,56627,.98360969E-4,.501E-4,0
IMAGE,2000-017A,2026-05-11T12:21:24.545088,1.68665748,.74599038,94.2002,314.8870,291.9767,8.1989,0,U,26113,999,16088,-.20584314E-1,.8E-7,0
CLUSTER II-FM7 (SAMBA),2000-041A,2026-05-14T16:04:58.613376,0.44842106,.9016039,149.8131,45.0140,261.7471,0.4872,0,U,26410,999,2015,0,.3081E-4,0
CLUSTER II-FM8 (TANGO),2000-045B,2026-05-14T15:29:09.525696,0.44404709,.901998,150.0702,46.0108,262.6015,0.5030,0,U,26464,999,2014,0,.3165E-4,0
ODIN,2001-007A,2026-05-12T12:52:37.888896,15.66058166,.0001948,97.3936,171.4659,199.4523,160.6662,0,U,26702,999,38380,.72794E-3,.74863E-3,0
OMNI-M1,2001-026A,2026-05-12T13:21:38.726208,3.92401465,.00154473,44.8439,253.4765,47.3287,312.8214,0,U,26857,999,20417,0,-.19E-6,0
PCSAT (NO-44),2001-043C,2026-05-12T22:58:10.199136,14.31941974,.00062794,67.0512,335.3934,263.7179,96.3208,0,U,26931,999,28540,.55251699E-4,.65E-6,0
PROBA-1,2001-049B,2026-05-12T22:55:24.889152,15.07362387,.0053775,97.9616,140.2599,241.4498,118.1310,0,U,26958,999,33831,.10081049E-3,.1501E-4,0
SAUDISAT 1C (SO-50),2002-058C,2026-05-12T08:20:44.730816,14.82969432,.0075634,64.5523,239.8634,269.0204,90.2235,0,U,27607,999,25914,.92778E-4,.635E-5,0
CORIOLIS,2003-001A,2026-05-12T23:08:58.301952,14.19934820,.00131653,98.7136,140.3864,318.2434,41.7737,0,U,27640,999,20922,.53039494E-4,.69E-6,0
CUTE-1 (CO-55),2003-031E,2026-05-12T21:54:33.882624,14.24313141,.00083426,98.6747,141.9148,290.6840,69.3444,0,U,27844,999,18665,.10142213E-3,.19E-5,0
CUBESAT XI-IV (CO-57),2003-031J,2026-05-12T22:53:44.176992,14.23601310,.00084651,98.6779,141.6963,311.5693,48.4759,0,U,27848,999,18636,.92088775E-4,.166E-5,0
MOZHAETS 4 (RS22),2003-042A,2026-05-12T21:55:20.194752,14.73405335,.00119091,98.3475,316.2782,26.6361,109.5744,0,U,27939,999,21035,.18147717E-3,.1124E-4,0
